{
  "type": "FeatureCollection",
  "features": [
    {
      "type": "Feature",
      "properties": {
        "nombre": "Parque Recreativo Comfama",
        "tipo": "zona_principal",
        "descripcion": "Área general del parque que comprende las atracciones principales y el Mundo Acuático.",
        "imagen": "/images/parque.png"
      },
      "geometry": {
        "type": "Polygon",
        "coordinates": [
          [
            [-75.382234, 6.139576],
            [-75.383156, 6.138848],
            [-75.382979, 6.137756],
            [-75.382607, 6.137497],
            [-75.382578, 6.137492],
            [-75.382114, 6.137558],
            [-75.382073, 6.137539],
            [-75.381805, 6.137112],
            [-75.381779, 6.137062],
            [-75.382013, 6.135428],
            [-75.381908, 6.135364],
            [-75.381541, 6.135385],
            [-75.381497, 6.135389],
            [-75.381462, 6.135404],
            [-75.381093, 6.136125],
            [-75.379405, 6.136136],
            [-75.379298, 6.136224],
            [-75.378472, 6.136277],
            [-75.378428, 6.136285],
            [-75.378409, 6.136375],
            [-75.378357, 6.136818],
            [-75.378312, 6.136845],
            [-75.378227, 6.137908],
            [-75.378223, 6.138164],
            [-75.378257, 6.138411],
            [-75.378423, 6.139088],
            [-75.378661, 6.139828],
            [-75.378754, 6.139884],
            [-75.379469, 6.139968],
            [-75.379626, 6.140073],
            [-75.38066, 6.141282],
            [-75.380696, 6.141288],
            [-75.380751, 6.141238],
            [-75.380767, 6.141031],
            [-75.380777, 6.140912],
            [-75.380751, 6.140817],
            [-75.381525, 6.140171],
            [-75.381952, 6.139816],
            [-75.382234, 6.139576]
          ]
        ]
      }
    }
  ]
}
