{
  "type": "FeatureCollection",
  "features": [
    {
      "type": "Feature",
      "properties": {
        "nombre": "Sendero principal",
        "tipo": "sendero_principal",
        "descripcion": "Acceso peatonal desde la entrada hacia el interior del parque.",
        "imagen": "/images/sendero.svg"
      },
      "geometry": {
        "type": "MultiLineString",
        "coordinates": [
          [
            [-75.3822437, 6.1396255],
            [-75.3818606, 6.1391248],
            [-75.381843, 6.1390372],
            [-75.3818604, 6.1389883],
            [-75.3818989, 6.1389342],
            [-75.3819125, 6.1388499],
            [-75.3816976, 6.1387142],
            [-75.3813532, 6.1383427],
            [-75.3813446, 6.1383143],
            [-75.3813667, 6.1382827],
            [-75.3814008, 6.1382508],
            [-75.3816531, 6.1380953],
            [-75.3817049, 6.1380799]
          ],
          [
            [-75.3819046, 6.1391812],
            [-75.3817176, 6.1393397],
            [-75.3817921, 6.1394528],
            [-75.3817691, 6.1394649],
            [-75.3817461, 6.139487],
            [-75.3817278, 6.1395058],
            [-75.381714, 6.139537],
            [-75.3817181, 6.1395696],
            [-75.3815244, 6.1394685],
            [-75.3814409, 6.1394294],
            [-75.3813316, 6.1393903],
            [-75.3812116, 6.1393597],
            [-75.381159, 6.1393656],
            [-75.3809515, 6.1393582],
            [-75.3806215, 6.1391864],
            [-75.3804681, 6.1390273],
            [-75.3804463, 6.138976],
            [-75.3805923, 6.1387488],
            [-75.3806521, 6.1386458],
            [-75.3806925, 6.1385055],
            [-75.3807301, 6.1383905],
            [-75.3807903, 6.1382792],
            [-75.3809163, 6.1381668],
            [-75.3811368, 6.1379034],
            [-75.3813864, 6.1377636],
            [-75.3814516, 6.1377625],
            [-75.3815217, 6.1377982],
            [-75.3816269, 6.137812],
            [-75.3818988, 6.1377758],
            [-75.3817064, 6.1380804]
          ]
        ]
      }
    }
  ]
}
